STARLINK-33565          
1 62288U 24237X   26068.43525124  .00030162  00000+0  11002-2 0  9999
2 62288  43.0014 206.4987 0001019 196.7330 163.3488 15.27606709 71280
AL MUNTHER              
1 63240U 25052AG  26068.64540749  .00017933  00000+0  65015-3 0  9992
2 63240  97.4001 323.9152 0008027 130.7043 229.4895 15.28381521 54798
